[{"OBJECT_NAME":"STARLINK-5817","OBJECT_ID":"2023-028AQ","EPOCH":"2026-03-09T16:57:33.682176","MEAN_MOTION":14.9832852,"ECCENTRICITY":0.00032219,"INCLINATION":70.0001,"RA_OF_ASC_NODE":204.2112,"ARG_OF_PERICENTER":266.7202,"MEAN_ANOMALY":93.3589,"EPHEMERIS_TYPE":0,"CLASSIFICATION_TYPE":"U","NORAD_CAT_ID":55779,"ELEMENT_SET_NO":999,"REV_AT_EPOCH":16703,"BSTAR":0.00010024754,"MEAN_MOTION_DOT":1.103e-5,"MEAN_MOTION_DDOT":0},{"OBJECT_NAME":"TITAN 3C TRANSTAGE DEB","OBJECT_ID":"1965-082MY","EPOCH":"2026-03-09T02:07:30.980928","MEAN_MOTION":14.9794194,"ECCENTRICITY":0.0005374,"INCLINATION":32.3706,"RA_OF_ASC_NODE":83.5066,"ARG_OF_PERICENTER":10.5158,"MEAN_ANOMALY":349.5614,"EPHEMERIS_TYPE":0,"CLASSIFICATION_TYPE":"U","NORAD_CAT_ID":3386,"ELEMENT_SET_NO":999,"REV_AT_EPOCH":23080,"BSTAR":0.0004514074,"MEAN_MOTION_DOT":5.483e-5,"MEAN_MOTION_DDOT":0}]
